[{"OBJECT_NAME":"STARLINK-3088","OBJECT_ID":"2021-082AK","EPOCH":"2026-03-09T21:56:53.146464","MEAN_MOTION":14.97522709,"ECCENTRICITY":0.00022372,"INCLINATION":69.9979,"RA_OF_ASC_NODE":274.6741,"ARG_OF_PERICENTER":269.4701,"MEAN_ANOMALY":90.6201,"EPHEMERIS_TYPE":0,"CLASSIFICATION_TYPE":"U","NORAD_CAT_ID":49163,"ELEMENT_SET_NO":999,"REV_AT_EPOCH":24764,"BSTAR":3.6026631e-5,"MEAN_MOTION_DOT":3.29e-6,"MEAN_MOTION_DDOT":0},{"OBJECT_NAME":"SL-16 DEB","OBJECT_ID":"1992-093L","EPOCH":"2026-03-09T13:43:05.820096","MEAN_MOTION":14.92566733,"ECCENTRICITY":0.00224926,"INCLINATION":70.8231,"RA_OF_ASC_NODE":106.9008,"ARG_OF_PERICENTER":139.8913,"MEAN_ANOMALY":15.7142,"EPHEMERIS_TYPE":0,"CLASSIFICATION_TYPE":"U","NORAD_CAT_ID":22296,"ELEMENT_SET_NO":999,"REV_AT_EPOCH":72300,"BSTAR":0.0028358785,"MEAN_MOTION_DOT":0.00029386,"MEAN_MOTION_DDOT":0}]
